{"type": "FeatureCollection", "features": [ {"type": "Feature", "properties": {"norad_id": 66896, "name": "STARLINK-35791", "group": "last-30-days", "lat": -46.32729700979514, "lon": -80.46727848683976, "alt_km": 334.6437351159093, "timestamp": "2025-12-17T21:39:44.492781+00:00", "meta": {"OBJECT_NAME": "STARLINK-35791", "OBJECT_ID": "2025-283U", "EPOCH": "2025-12-17T14:00:03.000384", "MEAN_MOTION": 15.81412846, "ECCENTRICITY": 0.00010945, "INCLINATION": 53.1546, "RA_OF_ASC_NODE": 49.3705, "ARG_OF_PERICENTER": 72.5713, "MEAN_ANOMALY": 154.1931, "EPHEMERIS_TYPE": 0, "CLASSIFICATION_TYPE": "U", "NORAD_CAT_ID": 66896, "ELEMENT_SET_NO": 999, "REV_AT_EPOCH": 320, "BSTAR": -0.0079802054, "MEAN_MOTION_DOT": -0.01433701, "MEAN_MOTION_DDOT": 0}, "tle": {"line1": "1 66896U 25283U   25351.58336806 -.01433701  00000+0 -79802-2 0  9998", "line2": "2 66896  53.1546  49.3705 0001094  72.5713 154.1931 15.81412846  3207"}}, "geometry": {"type": "Point", "coordinates": [-80.46727848683976, -46.32729700979514]}}, {"type": "Feature", "properties": {"norad_id": 66897, "name": "STARLINK-36079", "group": "last-30-days", "lat": -48.61075580708615, "lon": -73.93079455425882, "alt_km": 335.02590004049307, "timestamp": "2025-12-17T21:39:44.492790+00:00", "meta": {"OBJECT_NAME": "STARLINK-36079", "OBJECT_ID": "2025-283V", "EPOCH": "2025-12-17T14:00:03.000384", "MEAN_MOTION": 15.81321003, "ECCENTRICITY": 0.00010926, "INCLINATION": 53.1546, "RA_OF_ASC_NODE": 49.3603, "ARG_OF_PERICENTER": 76.7273, "MEAN_ANOMALY": 155.1393, "EPHEMERIS_TYPE": 0, "CLASSIFICATION_TYPE": "U", "NORAD_CAT_ID": 66897, "ELEMENT_SET_NO": 999, "REV_AT_EPOCH": 320, "BSTAR": -0.0081542023, "MEAN_MOTION_DOT": -0.014558, "MEAN_MOTION_DDOT": 0}, "tle": {"line1": "1 66897U 25283V   25351.58336806 -.01455800  00000+0 -81542-2 0  9997", "line2": "2 66897  53.1546  49.3603 0001092  76.7273 155.1393 15.81321003  3207"}}, "geometry": {"type": "Point", "coordinates": [-73.93079455425882, -48.61075580708615]}}, {"type": "Feature", "properties": {"norad_id": 66898, "name": "STARLINK-36065", "group": "last-30-days", "lat": -49.631012011562284, "lon": -70.35085498493062, "alt_km": 335.1651000750553, "timestamp": "2025-12-17T21:39:44.492799+00:00", "meta": {"OBJECT_NAME": "STARLINK-36065", "OBJECT_ID": "2025-283W", "EPOCH": "2025-12-17T14:00:03.000384", "MEAN_MOTION": 15.8126412, "ECCENTRICITY": 9.876e-05, "INCLINATION": 53.1542, "RA_OF_ASC_NODE": 49.3541, "ARG_OF_PERICENTER": 64.7245, "MEAN_ANOMALY": 169.7781, "EPHEMERIS_TYPE": 0, "CLASSIFICATION_TYPE": "U", "NORAD_CAT_ID": 66898, "ELEMENT_SET_NO": 999, "REV_AT_EPOCH": 320, "BSTAR": -0.0082240425, "MEAN_MOTION_DOT": -0.01463304, "MEAN_MOTION_DDOT": 0}, "tle": {"line1": "1 66898U 25283W   25351.58336806 -.01463304  00000+0 -82240-2 0  9992", "line2": "2 66898  53.1542  49.3541 0000987  64.7245 169.7781 15.81264120  3201"}}, "geometry": {"type": "Point", "coordinates": [-70.35085498493062, -49.631012011562284]}}, {"type": "Feature", "properties": {"norad_id": 66899, "name": "STARLINK-36064", "group": "last-30-days", "lat": -50.50323110091904, "lon": -66.7737549014987, "alt_km": 335.41040704714214, "timestamp": "2025-12-17T21:39:44.492810+00:00", "meta": {"OBJECT_NAME": "STARLINK-36064", "OBJECT_ID": "2025-283X", "EPOCH": "2025-12-17T14:00:03.000384", "MEAN_MOTION": 15.81221815, "ECCENTRICITY": 0.00010793, "INCLINATION": 53.1542, "RA_OF_ASC_NODE": 49.349, "ARG_OF_PERICENTER": 71.0674, "MEAN_ANOMALY": 165.9515, "EPHEMERIS_TYPE": 0, "CLASSIFICATION_TYPE": "U", "NORAD_CAT_ID": 66899, "ELEMENT_SET_NO": 999, "REV_AT_EPOCH": 314, "BSTAR": -0.008320636, "MEAN_MOTION_DOT": -0.01475956, "MEAN_MOTION_DDOT": 0}, "tle": {"line1": "1 66899U 25283X   25351.58336806 -.01475956  00000+0 -83206-2 0  9992", "line2": "2 66899  53.1542  49.3490 0001079  71.0674 165.9515 15.81221815  3145"}}, "geometry": {"type": "Point", "coordinates": [-66.7737549014987, -50.50323110091904]}}, {"type": "Feature", "properties": {"norad_id": 66900, "name": "STARLINK-36074", "group": "last-30-days", "lat": -51.281778953245826, "lon": -62.96260962102683, "alt_km": 335.6570167624204, "timestamp": "2025-12-17T21:39:44.492820+00:00", "meta": {"OBJECT_NAME": "STARLINK-36074", "OBJECT_ID": "2025-283Y", "EPOCH": "2025-12-17T14:00:03.000384", "MEAN_MOTION": 15.81162953, "ECCENTRICITY": 0.00011725, "INCLINATION": 53.1543, "RA_OF_ASC_NODE": 49.3435, "ARG_OF_PERICENTER": 76.4514, "MEAN_ANOMALY": 163.1689, "EPHEMERIS_TYPE": 0, "CLASSIFICATION_TYPE": "U", "NORAD_CAT_ID": 66900, "ELEMENT_SET_NO": 999, "REV_AT_EPOCH": 320, "BSTAR": -0.0083373051, "MEAN_MOTION_DOT": -0.01475037, "MEAN_MOTION_DDOT": 0}, "tle": {"line1": "1 66900U 25283Y   25351.58336806 -.01475037  00000+0 -83373-2 0  9990", "line2": "2 66900  53.1543  49.3435 0001172  76.4514 163.1689 15.81162953  3200"}}, "geometry": {"type": "Point", "coordinates": [-62.96260962102683, -51.281778953245826]}}, {"type": "Feature", "properties": {"norad_id": 66901, "name": "STARLINK-36043", "group": "last-30-days", "lat": -51.88703739637428, "lon": -59.33614032783692, "alt_km": 335.6783391884601, "timestamp": "2025-12-17T21:39:44.492829+00:00", "meta": {"OBJECT_NAME": "STARLINK-36043", "OBJECT_ID": "2025-283Z", "EPOCH": "2025-12-17T14:00:03.000384", "MEAN_MOTION": 15.81139128, "ECCENTRICITY": 0.00010154, "INCLINATION": 53.1544, "RA_OF_ASC_NODE": 49.3387, "ARG_OF_PERICENTER": 75.8658, "MEAN_ANOMALY": 166.1319, "EPHEMERIS_TYPE": 0, "CLASSIFICATION_TYPE": "U", "NORAD_CAT_ID": 66901, "ELEMENT_SET_NO": 999, "REV_AT_EPOCH": 320, "BSTAR": -0.0084755788, "MEAN_MOTION_DOT": -0.0149502, "MEAN_MOTION_DDOT": 0}, "tle": {"line1": "1 66901U 25283Z   25351.58336806 -.01495020  00000+0 -84756-2 0  9991", "line2": "2 66901  53.1544  49.3387 0001015  75.8658 166.1319 15.81139128  3207"}}, "geometry": {"type": "Point", "coordinates": [-59.33614032783692, -51.88703739637428]}}, {"type": "Feature", "properties": {"norad_id": 66902, "name": "STARLINK-35983", "group": "last-30-days", "lat": -52.42840017148554, "lon": -55.16813681953246, "alt_km": 335.9110143971502, "timestamp": "2025-12-17T21:39:44.492839+00:00", "meta": {"OBJECT_NAME": "STARLINK-35983", "OBJECT_ID": "2025-283AA", "EPOCH": "2025-12-17T14:00:03.000384", "MEAN_MOTION": 15.81073272, "ECCENTRICITY": 0.00010556, "INCLINATION": 53.1542, "RA_OF_ASC_NODE": 49.3332, "ARG_OF_PERICENTER": 67.4742, "MEAN_ANOMALY": 177.2257, "EPHEMERIS_TYPE": 0, "CLASSIFICATION_TYPE": "U", "NORAD_CAT_ID": 66902, "ELEMENT_SET_NO": 999, "REV_AT_EPOCH": 320, "BSTAR": -0.0085406241, "MEAN_MOTION_DOT": -0.01501073, "MEAN_MOTION_DDOT": 0}, "tle": {"line1": "1 66902U 25283AA  25351.58336806 -.01501073  00000+0 -85406-2 0  9991", "line2": "2 66902  53.1542  49.3332 0001055  67.4742 177.2257 15.81073272  3202"}}, "geometry": {"type": "Point", "coordinates": [-55.16813681953246, -52.42840017148554]}}, {"type": "Feature", "properties": {"norad_id": 66903, "name": "STARLINK-36077", "group": "last-30-days", "lat": -52.780929087484054, "lon": -51.430069042265266, "alt_km": 336.04277497315525, "timestamp": "2025-12-17T21:39:44.492848+00:00", "meta": {"OBJECT_NAME": "STARLINK-36077", "OBJECT_ID": "2025-283AB", "EPOCH": "2025-12-17T14:00:03.000384", "MEAN_MOTION": 15.81050327, "ECCENTRICITY": 0.00010633, "INCLINATION": 53.1546, "RA_OF_ASC_NODE": 49.3285, "ARG_OF_PERICENTER": 77.9575, "MEAN_ANOMALY": 169.0813, "EPHEMERIS_TYPE": 0, "CLASSIFICATION_TYPE": "U", "NORAD_CAT_ID": 66903, "ELEMENT_SET_NO": 999, "REV_AT_EPOCH": 320, "BSTAR": -0.0086845339, "MEAN_MOTION_DOT": -0.01521867, "MEAN_MOTION_DDOT": 0}, "tle": {"line1": "1 66903U 25283AB  25351.58336806 -.01521867  00000+0 -86845-2 0  9993", "line2": "2 66903  53.1546  49.3285 0001063  77.9575 169.0813 15.81050327  3206"}}, "geometry": {"type": "Point", "coordinates": [-51.430069042265266, -52.780929087484054]}}, {"type": "Feature", "properties": {"norad_id": 66904, "name": "STARLINK-36059", "group": "last-30-days", "lat": -53.01816900054774, "lon": -47.5327557690065, "alt_km": 336.16780093730085, "timestamp": "2025-12-17T21:39:44.492857+00:00", "meta": {"OBJECT_NAME": "STARLINK-36059", "OBJECT_ID": "2025-283AC", "EPOCH": "2025-12-17T14:00:03.000384", "MEAN_MOTION": 15.81025224, "ECCENTRICITY": 0.00010319, "INCLINATION": 53.1543, "RA_OF_ASC_NODE": 49.3231, "ARG_OF_PERICENTER": 70.4487, "MEAN_ANOMALY": 179.0078, "EPHEMERIS_TYPE": 0, "CLASSIFICATION_TYPE": "U", "NORAD_CAT_ID": 66904, "ELEMENT_SET_NO": 999, "REV_AT_EPOCH": 320, "BSTAR": -0.008931547, "MEAN_MOTION_DOT": -0.01558131, "MEAN_MOTION_DDOT": 0}, "tle": {"line1": "1 66904U 25283AC  25351.58336806 -.01558131  00000+0 -89315-2 0  9993", "line2": "2 66904  53.1543  49.3231 0001031  70.4487 179.0078 15.81025224  3202"}}, "geometry": {"type": "Point", "coordinates": [-47.5327557690065, -53.01816900054774]}}, {"type": "Feature", "properties": {"norad_id": 66905, "name": "STARLINK-36075", "group": "last-30-days", "lat": -53.123250236093604, "lon": -43.90664733335742, "alt_km": 336.2490273095673, "timestamp": "2025-12-17T21:39:44.492866+00:00", "meta": {"OBJECT_NAME": "STARLINK-36075", "OBJECT_ID": "2025-283AD", "EPOCH": "2025-12-17T14:00:03.000384", "MEAN_MOTION": 15.81014558, "ECCENTRICITY": 0.00010361, "INCLINATION": 53.1545, "RA_OF_ASC_NODE": 49.3187, "ARG_OF_PERICENTER": 67.0021, "MEAN_ANOMALY": 184.6678, "EPHEMERIS_TYPE": 0, "CLASSIFICATION_TYPE": "U", "NORAD_CAT_ID": 66905, "ELEMENT_SET_NO": 999, "REV_AT_EPOCH": 320, "BSTAR": -0.0091091352, "MEAN_MOTION_DOT": -0.01584479, "MEAN_MOTION_DDOT": 0}, "tle": {"line1": "1 66905U 25283AD  25351.58336806 -.01584479  00000+0 -91091-2 0  9992", "line2": "2 66905  53.1545  49.3187 0001036  67.0021 184.6678 15.81014558  3202"}}, "geometry": {"type": "Point", "coordinates": [-43.90664733335742, -53.123250236093604]}}]}